EXPRESS-AT1             
1 39612U 14010A   22363.25535440  .00000081  00000+0  00000+0 0  9998
2 39612   0.0627 215.1227 0000157 269.8077 120.6750  1.00271522 32354
EXPRESS-AT2             
1 39613U 14010B   22363.63754103 -.00000278  00000+0  00000+0 0  9999
2 39613   0.0473 206.8215 0000127 207.8988  52.6928  1.00271127 32192
AMAZONAS 4A             
1 39616U 14011A   22363.53313590 -.00000249  00000+0  00000+0 0  9991
2 39616   0.0289 275.7461 0003868  19.9920 280.1549  1.00271091 32019
ASTRA 5B                
1 39617U 14011B   22363.29147331  .00000157  00000+0  00000+0 0  9990
2 39617   0.0344  23.9692 0003389 245.4259 324.7208  1.00270579 31971
IRNSS-1B                
1 39635U 14017A   22361.79000641  .00000107  00000+0  00000+0 0  9996
2 39635  29.2001 261.8760 0018200 184.6282 349.2282  1.00272440 32076
LUCH 5V                 
1 39727U 14023A   22363.51923544 -.00000267  00000+0  00000+0 0  9991
2 39727   1.9700  77.1767 0002673 220.0014  82.3672  1.00275052 31665
KAZSAT-3                
1 39728U 14023B   22363.51200075  .00000061  00000+0  00000+0 0  9990
2 39728   0.0302 105.2713 0000597 180.0141  55.4768  1.00283610 29750
EUTELSAT 3B             
1 39773U 14030A   22363.28580758  .00000023  00000+0  00000+0 0  9999
2 39773   0.0607 354.7770 0005355 230.3204 338.6173  1.00272526 31379
ASIASAT 8 (AMOS-7)      
1 40107U 14046A   22363.42771222 -.00000031  00000+0  00000+0 0  9993
2 40107   0.0158  10.5848 0002244 245.9746 351.3892  1.00270301 89454
ASIASAT 6               
1 40141U 14052A   22363.62182565 -.00000359  00000+0  00000+0 0  9999
2 40141   0.0089 157.5832 0000818 151.7927 132.4140  1.00269414 30475
OPTUS 10                
1 40146U 14054A   22362.81415340 -.00000146  00000+0  00000+0 0  9990
2 40146   0.1586  14.4740 0003657 279.5707 252.2997  1.00270134 30338
MEASAT-3B               
1 40147U 14054B   22363.50535524 -.00000239  00000+0  00000+0 0  9998
2 40147   0.0408  49.2347 0001969 292.9025  29.2243  1.00272037 30213
LUCH (OLYMP)            
1 40258U 14058A   22363.35327330 -.00000138  00000+0  00000+0 0  9990
2 40258   0.0126  29.2228 0000774 242.9580 294.6920  1.00274365 28294
HIMAWARI-8              
1 40267U 14060A   22363.59493086 -.00000273  00000+0  00000+0 0  9991
2 40267   0.0388 179.1137 0001188 117.8629 155.8723  1.00269836 30178
IRNSS-1C                
1 40269U 14061A   22363.51688199 -.00000159  00000+0  00000+0 0  9990
2 40269   3.3864 121.0111 0016843   9.3296 236.7382  1.00272168 30130
INTELSAT 30 (IS-30)     
1 40271U 14062A   22360.33200122 -.00000146  00000+0  00000+0 0  9993
2 40271   0.0160 357.5810 0002521 111.8391   9.8557  1.00270567 29863
ARSAT 1                 
1 40272U 14062B   22363.49302751 -.00000256  00000+0  00000+0 0  9997
2 40272   0.0170  29.0638 0001651 235.9273 298.6250  1.00271489 29923
EXPRESS-AM6             
1 40277U 14064A   22362.94285251  .00000100  00000+0  00000+0 0  9995
2 40277   0.0412 243.3850 0000633 205.0220  41.4120  1.00273477 29977
GSAT-16                 
1 40332U 14078A   22363.51139060  .00000088  00000+0  00000+0 0  9997
2 40332   0.0416 252.6817 0002503 224.9266 219.5018  1.00272651 29402
DIRECTV 14              
1 40333U 14078B   22363.33714775 -.00000122  00000+0  00000+0 0  9990
2 40333   0.0346  75.2489 0000175  90.5174 314.1258  1.00270771 29372
YAMAL 401               
1 40345U 14082A   22363.50535524 -.00000225  00000+0  00000+0 0  9994
2 40345   0.0184   8.7646 0000218 184.2930 176.7373  1.00271409 29223
ASTRA 2G                
1 40364U 14089A   22363.29077600  .00000152  00000+0  00000+0 0  9992
2 40364   0.0343  20.4667 0001794 348.5660 221.5538  1.00270994 29275
FENGYUN 2G              
1 40367U 14090A   22363.52019426 -.00000300  00000+0  00000+0 0  9991
2 40367   2.4256  87.4910 0000588 244.9243  52.1786  1.00282326 29306
MUOS-3                  
1 40374U 15002A   22363.42562024 -.00000127  00000+0  00000+0 0  9996
2 40374   2.6493  19.9947 0056639 183.1996  32.4369  1.00271814 28897
INMARSAT 5-F2           
1 40384U 15005A   22363.25792340 -.00000283  00000+0  00000+0 0  9990
2 40384   0.0182  29.5966 0000168  85.0360  20.9056  1.00270931 28988
ABS-3A                  
1 40424U 15010A   22363.21285049 -.00000024  00000+0  00000+0 0  9993
2 40424   0.0385  66.5642 0001093  85.0032  19.6859  1.00269789 28697
EUTELSAT 115 WEST B     
1 40425U 15010B   22363.56130726 -.00000023  00000+0  00000+0 0  9992
2 40425   0.0085 162.0029 0000387 158.8055 224.3544  1.00277539 28749
EXPRESS-AM7             
1 40505U 15012A   22363.26646889  .00000153  00000+0  00000+0 0  9995
2 40505   0.0148 333.0201 0002728 309.7881 310.8430  1.00274182 28314
IRNSS-1D                
1 40547U 15018A   22363.56195119 -.00000281  00000+0  00000+0 0  9998
2 40547  28.5736 261.8644 0018577 180.1099 330.1765  1.00269679 28308
BEIDOU 17               
1 40549U 15019A   22362.23638568 -.00000170  00000+0  00000+0 0  9991
2 40549  51.5527 310.4997 0035963 200.5910 123.0672  1.00254472 28371
THOR 7                  
1 40613U 15022A   22363.28868875 -.00000006  00000+0  00000+0 0  9997
2 40613   0.0240 121.3079 0002621 153.4504 286.2231  1.00271072 28125
TURKMENALEM52E/MONACOSAT
1 40617U 15023A   22363.22383328  .00000106  00000+0  00000+0 0  9991
2 40617   0.0181  35.5902 0002672 239.6629 315.0168  1.00274234 28140
DIRECTV 15              
1 40663U 15026A   22363.50465986 -.00000098  00000+0  00000+0 0  9998
2 40663   0.0172  39.4623 0000393 124.0004  13.2583  1.00267667 27774
SKY MEXICO-1            
1 40664U 15026B   22363.53313590 -.00000231  00000+0  00000+0 0  9994
2 40664   0.0126  30.5474 0002163 254.7134 285.8471  1.00269787 27769
METEOSAT-11 (MSG-4)     
1 40732U 15034A   22363.28519743 -.00000001  00000+0  00000+0 0  9994
2 40732   0.4679 358.2211 0000550  80.1215 122.1440  1.00274835 27321
STAR ONE C4             
1 40733U 15034B   22363.24737653 -.00000262  00000+0  00000+0 0  9992
2 40733   0.0183  12.9394 0002407 293.5469 170.2350  1.00268255 27332
WGS F7 (USA 263)        
1 40746U 15036A   22363.47063512  .00000020  00000+0  00000+0 0  9990
2 40746   0.0103  29.9698 0000456 148.7340 263.6079  1.00268909 27177
INTELSAT 34 (IS-34)     
1 40874U 15039A   22363.48933786 -.00000282  00000+0  00000+0 0  9996
2 40874   0.0179  10.3537 0000383 177.3624  30.8686  1.00270192 26938
EUTELSAT 8 WEST B       
1 40875U 15039B   22363.42692772 -.00000062  00000+0  00000+0 0  9994
2 40875   0.0633 356.3309 0002639 311.6329 295.6137  1.00271763 26954
GSAT-6                  
1 40880U 15041A   22363.51679483 -.00000157  00000+0  00000+0 0  9992
2 40880   0.0204  86.5190 0003107 171.1789 108.8474  1.00270424 26901
INMARSAT 5-F3           
1 40882U 15042A   22363.54354986  .00000053  00000+0  00000+0 0  9990
2 40882   0.0179  34.8994 0000345  67.3106  11.0212  1.00269136 26871
MUOS-4                  
1 40887U 15044A   22363.51513869 -.00000092  00000+0  00000+0 0  9995
2 40887   2.6040  15.3460 0054225 356.6099 346.4317  1.00271476 26864
TJS-1                   
1 40892U 15046A   22363.56021543 -.00000154  00000+0  00000+0 0  9990
2 40892   0.0286 312.4051 0004312  37.4249 104.7911  1.00271617 26877
EXPRESS-AM8             
1 40895U 15048A   22363.42588174 -.00000108  00000+0  00000+0 0  9997
2 40895   0.0448 202.5290 0000166  65.3767 329.2540  1.00270901 26688
BEIDOU 20               
1 40938U 15053A   22363.23177035 -.00000138  00000+0  00000+0 0  9993
2 40938  51.1969 273.6308 0043275 194.8703 166.0432  1.00293648 26664
SKY MUSTER 1 (NBN1A)    
1 40940U 15054A   22362.70396435 -.00000277  00000+0  00000+0 0  9999
2 40940   0.0190 341.0053 0001670 294.0863 215.7149  1.00268697 26568
ARSAT 2                 
1 40941U 15054B   22363.53868721 -.00000221  00000+0  00000+0 0  9993
2 40941   0.0147  27.8306 0001694 247.2408 295.8295  1.00271214 26630
MORELOS 3               
1 40946U 15056A   22363.51021691 -.00000040  00000+0  00000+0 0  9994
2 40946   3.4745 338.3245 0002122 352.5613 197.6304  1.00271116 26599
APSTAR 9                
1 40982U 15059A   22363.63754061 -.00000263  00000+0  00000+0 0  9991
2 40982   0.0529 112.9986 0002459 132.1288 224.4363  1.00268767 26461
TURKSAT 4B              
1 40984U 15060A   22363.51034462  .00000118  00000+0  00000+0 0  9996
2 40984   0.0167  45.2994 0001493 248.6425  37.6974  1.00270165 26413
CHINASAT 2C (ZX 2C)     
1 41021U 15063A   22363.64757123 -.00000320  00000+0  00000+0 0  9998
2 41021   0.0411 155.6954 0002493 228.8791  50.0490  1.00270274 26320
GSAT-15                 
1 41028U 15065A   22363.50518163 -.00000255  00000+0  00000+0 0  9998
2 41028   0.0159  36.4029 0001847 211.5086 125.3979  1.00268473 26116
BADR-7 (ARABSAT-6B)     
1 41029U 15065B   22363.29034017  .00000147  00000+0  00000+0 0  9995
2 41029   0.0442 205.5331 0005914  42.3335 340.3514  1.00271492 26077
LAOSAT 1                
1 41034U 15067A   22363.58770455 -.00000340  00000+0  00000+0 0  9994
2 41034   0.0463 230.3404 0002624   5.0981 202.6661  1.00270892 26167
TELSTAR 12V             
1 41036U 15068A   22363.42562024 -.00000116  00000+0  00000+0 0  9992
2 41036   0.0300  83.4988 0002494 201.9672 310.6135  1.00271224 25932
CHINASAT 1C (ZX 1C)     
1 41103U 15073A   22363.58774713 -.00000119  00000+0  00000+0 0  9993
2 41103   3.8782  83.2498 0002184 163.7842 140.8664  1.00271036 25960
ELEKTRO-L 2             
1 41105U 15074A   22363.42579457 -.00000114  00000+0  00000+0 0  9992
2 41105   3.4771  85.8402 0002491 159.0775 351.7705  1.00271321 25824
COSMOS 2513             
1 41121U 15075A   22363.19007675 -.00000136  00000+0  00000+0 0  9997
2 41121   0.0734 107.5491 0003680 158.7239 340.0120  1.00271382 25836
EXPRESS-AMU1            
1 41191U 15082A   22363.50755534  .00000158  00000+0  00000+0 0  9994
2 41191   0.0194  30.3596 0002755 256.3941  29.9766  1.00271042 25572
GAOFEN 4                
1 41194U 15083A   22362.66065581 -.00000332  00000+0  00000+0 0  9995
2 41194   0.0886  84.8887 0004207 135.2393 220.4582  1.00267246 25812
